satname,norad_id,inclination_deg,eccentricity,mean_motion_rev_per_day,perigee_km,apogee_km,l1,l2
STARLINK-1008,44714,53.0544,0.0001523,15.06431512,546.0602640038769,548.1696957569493,1 44714U 19074B   25304.66018705  .00000204  00000+0  32539-4 0  9999,2 44714  53.0544  45.8525 0001523 108.4086 251.7069 15.06431512329305
STARLINK-1010,44716,53.0419,0.0005351,16.00013495,270.8215322845581,277.94105736367874,1 44716U 19074D   25304.91668980  .00518555  12839-3  99127-3 0  9990,2 44716  53.0419 329.7841 0005351  60.3650 210.9381 16.00013495  6070
STARLINK-1011,44717,53.0481,0.0004161,15.858695,311.093007604426,316.66210211698126,1 44717U 19074E   25304.91668980  .00263246  00000+0  10243-2 0  9999,2 44717  53.0481  26.9662 0004161 319.0800 287.0169 15.85869500  5982
STARLINK-1012,44718,53.0534,0.0001671,15.06407106,546.0325570525447,548.3470012621401,1 44718U 19074F   25304.70443501  .00015183  00000+0  10358-2 0  9999,2 44718  53.0534  45.6549 0001671 110.6619 249.4549 15.06407106329302
STARLINK-1017,44723,53.0514,0.000142,15.15039748,519.8782338732799,521.8375484223661,1 44723U 19074L   25304.74368957  .00047932  00000+0  25334-2 0  9997,2 44723  53.0514  42.0576 0001420 251.3294 108.7545 15.15039748329363
STARLINK-1019,44724,53.0544,9.81e-05,15.15931873,517.4743968413031,518.8274485317334,1 44724U 19074M   25304.91668980  .01000619  00000+0  47970-1 0  9997,2 44724  53.0544  44.4947 0000981  73.0247 127.4974 15.15931873  5795
STARLINK-1020,44725,53.0548,0.0001299,15.06425012,546.2353080014163,548.0344936412484,1 44725U 19074N   25304.63992693  .00002408  00000+0  18035-3 0  9997,2 44725  53.0548  65.9441 0001299  88.7678 271.3460 15.06425012329017
STARLINK-1031,44736,53.0506,0.0005087,15.47713284,419.9573227609171,426.8772240786948,1 44736U 19074Z   25304.91668980  .00054996  00000+0  10461-2 0  9992,2 44736  53.0506  33.8946 0005087 249.6146  74.2559 15.47713284  5885
STARLINK-1036,44741,53.0544,0.0001334,15.06410122,546.2566982805656,548.1043729990743,1 44741U 19074AE  25304.73575639  .00002358  00000+0  17706-3 0  9991,2 44741  53.0544  65.5151 0001334  92.4447 267.6694 15.06410122329036
STARLINK-1039,44744,53.0512,0.0005281,15.12835978,523.9092792667607,531.2030723990756,1 44744U 19074AH  25304.80137475  .00047117  00000+0  26491-2 0  9996,2 44744  53.0512  83.1705 0005281 149.6716 210.4582 15.12835978328795
STARLINK-1042,44747,53.0483,0.0003333,15.43097439,434.7026375630876,439.2455906317455,1 44747U 19074AL  25304.52637874  .00024037  00000+0  54274-3 0  9993,2 44747  53.0483 351.3273 0003333  91.0329 269.1058 15.43097439330081
STARLINK-1043,44748,53.0551,0.000139,15.06395789,546.2618388333412,548.1870893203532,1 44748U 19074AM  25304.77446605  .00001776  00000+0  13811-3 0  9998,2 44748  53.0551  85.3392 0001390  82.7630 277.3517 15.06395789328768
STARLINK-1046,44751,53.0547,0.0001284,15.06408557,546.2961207024155,548.0745434772962,1 44751U 19074AQ  25304.78920686  .00001295  00000+0  10578-3 0  9992,2 44751  53.0547  85.2728 0001284  92.5073 267.6063 15.06408557328767
STARLINK-1047,44752,53.0733,0.0003381,15.29244741,475.7507020581934,480.38686841016806,1 44752U 19074AR  25304.62864594  .00014210  00000+0  50548-3 0  9993,2 44752  53.0733  27.4099 0003381 156.5809 203.5344 15.29244741329571
STARLINK-1048,44753,53.0528,0.0001375,15.06423076,546.1886085224496,548.0930599268613,1 44753U 19074AS  25304.61597067  .00013465  00000+0  92054-3 0  9990,2 44753  53.0528  46.0507 0001375  79.1198 280.9945 15.06423076329297
STARLINK-1053,44758,53.0419,0.0003183,15.60393349,384.3668138322837,388.67319448112994,1 44758U 19074AX  25304.41341926  .00062217  00000+0  74484-3 0  9990,2 44758  53.0419   5.3072 0003183  28.8752 331.2436 15.60393349329869
STARLINK-1054,44759,53.0374,0.000633,15.92683781,290.55215394695006,299.0000619416087,1 44759U 19074AY  25304.91668980  .00378880  66288-4  10833-2 0  9996,2 44759  53.0374  26.6355 0006330 333.3517  56.1443 15.92683781  5982
STARLINK-1056,44761,53.0363,0.0005013,16.08174666,248.5317832840974,255.17901366280785,1 44761U 19074BA  25304.79938079  .00823768  37496-3  96220-3 0  9997,2 44761  53.0363  12.8585 0005013  18.3646 341.7567 16.08174666329787
STARLINK-1060,44765,53.053,0.000385,15.62847537,376.8346497471166,382.03798120003194,1 44765U 19074BE  25304.91668980  .00113877  00000+0  12274-2 0  9992,2 44765  53.0530  49.0233 0003850 348.7082 169.9710 15.62847537  5964
STARLINK-1063,44768,53.0545,0.0001269,15.0640257,546.3248555371702,548.0825070020755,1 44768U 19074BH  25304.77815661  .00000001  00000+0  18986-4 0  9991,2 44768  53.0545  85.3244 0001269  89.2918 270.8216 15.06402570328777
STARLINK-1067,44771,53.0538,0.0001164,15.06416662,546.3543871506954,547.9665964067826,1 44771U 19074BL  25304.76709201 -.00001572  00000+0 -86606-4 0  9996,2 44771  53.0538  85.3751 0001164  94.0316 266.0806 15.06416662328764
STARLINK-1068,44772,53.0549,0.0001476,15.06412337,546.1515712019145,548.1959229344493,1 44772U 19074BM  25304.75787051  .00001149  00000+0  95957-4 0  9992,2 44772  53.0549  65.4148 0001476  79.4818 280.6338 15.06412337329034
STARLINK-1112,44925,53.0492,0.0004841,15.54824116,399.3813649067788,405.9465363871959,1 44925U 20001M   25304.84647281  .00044783  00000+0  66348-3 0  9996,2 44925  53.0492 162.6661 0004841 145.7599 214.3724 15.54824116321022
STARLINK-1114,44927,53.0526,0.0001526,15.06400063,546.1545566918821,548.2681730128352,1 44927U 20001P   25304.46486213  .00008770  00000+0  60694-3 0  9996,2 44927  53.0526 206.7326 0001526  85.0361 275.0802 15.06400063320376
STARLINK-1123,44930,53.0531,0.0001415,15.06399667,546.2326415701427,548.1925155008685,1 44930U 20001S   25304.01517312  .00002441  00000+0  18270-3 0  9998,2 44930  53.0531 208.7513 0001415  99.0799 261.0350 15.06399667320306
STARLINK-1144,44933,53.0432,0.0011678,15.60471876,378.3935574173729,394.1925602627998,1 44933U 20001V   25304.91668980  .00172372  00000+0  20134-2 0  9990,2 44933  53.0432 139.3654 0011678  97.9354 291.7332 15.60471876  5921
STARLINK-1091,44940,53.0343,8.35e-05,16.05815962,257.791976722212,258.90026940376356,1 44940U 20001AC  25304.60731419  .01009376  56270-3  13733-2 0  9997,2 44940  53.0343 116.7953 0000835 305.2618  54.8335 16.05815962321630
STARLINK-1094,44941,53.0528,0.0001539,15.0640752,546.1227027211971,548.2543179132726,1 44941U 20001AD  25304.69153920  .00007207  00000+0  50211-3 0  9991,2 44941  53.0528 185.7150 0001539  83.3411 276.7753 15.06407520320688
STARLINK-1096,44942,52.9859,0.0007642,15.90877372,294.7231578344963,304.9297571829529,1 44942U 20001AE  25304.91668980  .00319023  48997-4  10024-2 0  9995,2 44942  52.9859 303.1866 0007642  51.5198 138.7253 15.90877372  6002
STARLINK-1122,44949,53.0534,0.0001299,15.06411161,546.2777529577224,548.0769496261873,1 44949U 20001AM  25304.84634767  .00005401  00000+0  38111-3 0  9998,2 44949  53.0534 185.0149 0001299 102.5873 257.5262 15.06411161320704
STARLINK-1080,44961,53.0527,0.0001561,15.06406796,546.109685596849,548.2717729139231,1 44961U 20001AZ  25304.84450639  .00002141  00000+0  16254-3 0  9998,2 44961  53.0527 165.0277 0001561  90.7791 269.3376 15.06406796320995
STARLINK-1090,44968,53.0522,0.0001237,15.06388643,546.3896958039131,548.1030356485944,1 44968U 20001BG  25304.84818537 -.00004372  00000+0 -27489-3 0  9992,2 44968  53.0522 165.0122 0001237  86.9631 273.1500 15.06388643320998
STARLINK-1107,44972,53.0068,0.000467,15.6855122,359.89664459089636,366.19290837012977,1 44972U 20001BL  25304.91668980  .00214031  00000+0  18098-2 0  9998,2 44972  53.0068  79.0170 0004670 277.6628 338.4230 15.68551220  5990
STARLINK-1132,45044,53.053,0.000127,15.06405621,546.3148133574532,548.0738475153839,1 45044U 20006A   25304.74129566  .00001212  00000+0  10023-3 0  9993,2 45044  53.0530 125.4914 0001270  94.7992 265.3142 15.06405621317308
STARLINK-1131,45047,53.0539,0.0001551,15.06417111,546.0850022565746,548.233229111659,1 45047U 20006D   25304.85008803  .00002331  00000+0  17526-3 0  9996,2 45047  53.0539 145.5419 0001551  90.4297 269.6870 15.06417111317038
STARLINK-1134,45048,53.0401,0.0012282,15.26667851,477.3514930892361,494.21202312665173,1 45048U 20006E   25297.87285069  .00016521  00000+0  63194-3 0  9999,2 45048  53.0401 155.6330 0012282 116.8822 243.3433 15.26667851316281
STARLINK-1156,45054,53.0522,0.0001446,15.06404676,546.195823379634,548.1986300379995,1 45054U 20006L   25304.75420477  .00000185  00000+0  31297-4 0  9995,2 45054  53.0522 145.4340 0001446  94.4108 265.7046 15.06404676317021
STARLINK-1159,45057,53.0554,0.0001146,15.25801606,487.59251626172045,489.16632182496596,1 45057U 20006P   25304.91668980  .01805431  00000+0  63526-1 0  9994,2 45057  53.0554 143.8438 0001146 112.3862  52.9303 15.25801606  5844
STARLINK-1166,45060,53.051,0.0001425,15.06410506,546.1925011674339,548.1662163296778,1 45060U 20006S   25304.84634531  .00001715  00000+0  13394-3 0  9997,2 45060  53.0510 145.0193 0001425  87.7639 272.3513 15.06410506317042
STARLINK-1169,45061,53.0524,0.0001703,15.06364659,546.1404698250608,548.4992804367303,1 45061U 20006T   25304.85374285  .00016230  00000+0  11070-2 0  9992,2 45061  53.0524 144.9888 0001703  97.4386 262.6797 15.06364659317046
STARLINK-1171,45062,53.0548,0.0002257,15.29925752,474.4870604264952,477.5810332370356,1 45062U 20006U   25304.74951949  .00243387  00000+0  80313-2 0  9990,2 45062  53.0548 143.1103 0002257 135.5614 224.5566 15.29925752317062
STARLINK-1133,45064,53.0527,0.0001569,15.0640545,546.1082699556064,548.2814390915546,1 45064U 20006W   25304.78553176  .00002170  00000+0  16453-3 0  9994,2 45064  53.0527 125.2892 0001569  90.7295 269.3873 15.06405450317318
STARLINK-1167,45071,53.0512,0.0001418,15.06426464,546.14844785266,548.1124537017004,1 45071U 20006AD  25304.74497535 -.00004677  00000+0 -29510-3 0  9998,2 45071  53.0512 125.4745 0001418  88.2307 271.8845 15.06426464317302
